[{"OBJECT_NAME":"ORBCOMM FM16","OBJECT_ID":"1998-046E","EPOCH":"2026-03-03T20:15:49.871808","MEAN_MOTION":14.3981494,"ECCENTRICITY":0.0002911,"INCLINATION":44.9947,"RA_OF_ASC_NODE":18.9265,"ARG_OF_PERICENTER":189.9465,"MEAN_ANOMALY":170.1326,"EPHEMERIS_TYPE":0,"CLASSIFICATION_TYPE":"U","NORAD_CAT_ID":25417,"ELEMENT_SET_NO":999,"REV_AT_EPOCH":44166,"BSTAR":0.00058815,"MEAN_MOTION_DOT":1.72e-5,"MEAN_MOTION_DDOT":0},{"OBJECT_NAME":"ORBCOMM FM15","OBJECT_ID":"1998-046F","EPOCH":"2026-03-01T22:38:33.271296","MEAN_MOTION":14.39427017,"ECCENTRICITY":0.0002671,"INCLINATION":44.998,"RA_OF_ASC_NODE":33.9056,"ARG_OF_PERICENTER":186.0202,"MEAN_ANOMALY":174.0615,"EPHEMERIS_TYPE":0,"CLASSIFICATION_TYPE":"U","NORAD_CAT_ID":25418,"ELEMENT_SET_NO":999,"REV_AT_EPOCH":44137,"BSTAR":0.0001764,"MEAN_MOTION_DOT":4.11e-6,"MEAN_MOTION_DDOT":0},{"OBJECT_NAME":"ORBCOMM FM14","OBJECT_ID":"1998-046G","EPOCH":"2026-03-03T01:40:11.239392","MEAN_MOTION":14.39870589,"ECCENTRICITY":0.00014126,"INCLINATION":44.9966,"RA_OF_ASC_NODE":25.9741,"ARG_OF_PERICENTER":201.4331,"MEAN_ANOMALY":158.6459,"EPHEMERIS_TYPE":0,"CLASSIFICATION_TYPE":"U","NORAD_CAT_ID":25419,"ELEMENT_SET_NO":999,"REV_AT_EPOCH":44151,"BSTAR":0.00052609393,"MEAN_MOTION_DOT":1.525e-5,"MEAN_MOTION_DDOT":0},{"OBJECT_NAME":"ORBCOMM FM13","OBJECT_ID":"1998-046H","EPOCH":"2026-03-03T00:10:43.251456","MEAN_MOTION":14.38426972,"ECCENTRICITY":0.00030373,"INCLINATION":44.9982,"RA_OF_ASC_NODE":36.9412,"ARG_OF_PERICENTER":152.7795,"MEAN_ANOMALY":207.3213,"EPHEMERIS_TYPE":0,"CLASSIFICATION_TYPE":"U","NORAD_CAT_ID":25420,"ELEMENT_SET_NO":999,"REV_AT_EPOCH":44049,"BSTAR":0.0004770614,"MEAN_MOTION_DOT":1.327e-5,"MEAN_MOTION_DDOT":0},{"OBJECT_NAME":"ORBCOMM FM21","OBJECT_ID":"1998-053A","EPOCH":"2026-03-03T13:37:31.180800","MEAN_MOTION":14.3799952,"ECCENTRICITY":9.88e-5,"INCLINATION":45.0072,"RA_OF_ASC_NODE":120.5606,"ARG_OF_PERICENTER":220.0748,"MEAN_ANOMALY":140.0028,"EPHEMERIS_TYPE":0,"CLASSIFICATION_TYPE":"U","NORAD_CAT_ID":25475,"ELEMENT_SET_NO":999,"REV_AT_EPOCH":43457,"BSTAR":0.0004244,"MEAN_MOTION_DOT":1.153e-5,"MEAN_MOTION_DDOT":0},{"OBJECT_NAME":"ORBCOMM FM22","OBJECT_ID":"1998-053B","EPOCH":"2026-03-03T11:17:28.755744","MEAN_MOTION":14.39221719,"ECCENTRICITY":0.0001067,"INCLINATION":45.0063,"RA_OF_ASC_NODE":113.6056,"ARG_OF_PERICENTER":121.1908,"MEAN_ANOMALY":238.9045,"EPHEMERIS_TYPE":0,"CLASSIFICATION_TYPE":"U","NORAD_CAT_ID":25476,"ELEMENT_SET_NO":999,"REV_AT_EPOCH":43461,"BSTAR":0.0004739,"MEAN_MOTION_DOT":1.34e-5,"MEAN_MOTION_DDOT":0},{"OBJECT_NAME":"ORBCOMM FM23","OBJECT_ID":"1998-053C","EPOCH":"2026-03-03T14:21:28.762848","MEAN_MOTION":14.3825981,"ECCENTRICITY":5.85e-5,"INCLINATION":45.0073,"RA_OF_ASC_NODE":122.1001,"ARG_OF_PERICENTER":147.0558,"MEAN_ANOMALY":213.0327,"EPHEMERIS_TYPE":0,"CLASSIFICATION_TYPE":"U","NORAD_CAT_ID":25477,"ELEMENT_SET_NO":999,"REV_AT_EPOCH":43473,"BSTAR":0.00046116,"MEAN_MOTION_DOT":1.273e-5,"MEAN_MOTION_DDOT":0},{"OBJECT_NAME":"ORBCOMM FM24","OBJECT_ID":"1998-053D","EPOCH":"2026-03-03T15:15:41.156928","MEAN_MOTION":14.38905722,"ECCENTRICITY":7.6e-5,"INCLINATION":45.007,"RA_OF_ASC_NODE":118.1912,"ARG_OF_PERICENTER":180.8116,"MEAN_ANOMALY":179.2731,"EPHEMERIS_TYPE":0,"CLASSIFICATION_TYPE":"U","NORAD_CAT_ID":25478,"ELEMENT_SET_NO":999,"REV_AT_EPOCH":43480,"BSTAR":0.00048911,"MEAN_MOTION_DOT":1.378e-5,"MEAN_MOTION_DDOT":0},{"OBJECT_NAME":"ORBCOMM FM25","OBJECT_ID":"1998-053E","EPOCH":"2026-03-03T13:02:23.114976","MEAN_MOTION":14.38869101,"ECCENTRICITY":0.0002797,"INCLINATION":45.0061,"RA_OF_ASC_NODE":116.9432,"ARG_OF_PERICENTER":132.9374,"MEAN_ANOMALY":227.171,"EPHEMERIS_TYPE":0,"CLASSIFICATION_TYPE":"U","NORAD_CAT_ID":25479,"ELEMENT_SET_NO":999,"REV_AT_EPOCH":43508,"BSTAR":0.00048317,"MEAN_MOTION_DOT":1.359e-5,"MEAN_MOTION_DDOT":0},{"OBJECT_NAME":"ORBCOMM FM26","OBJECT_ID":"1998-053F","EPOCH":"2026-03-03T07:38:05.061696","MEAN_MOTION":14.37804982,"ECCENTRICITY":0.00050589,"INCLINATION":45.0061,"RA_OF_ASC_NODE":116.4515,"ARG_OF_PERICENTER":141.5637,"MEAN_ANOMALY":218.5572,"EPHEMERIS_TYPE":0,"CLASSIFICATION_TYPE":"U","NORAD_CAT_ID":25480,"ELEMENT_SET_NO":999,"REV_AT_EPOCH":43493,"BSTAR":0.00040120662,"MEAN_MOTION_DOT":1.078e-5,"MEAN_MOTION_DDOT":0},{"OBJECT_NAME":"ORBCOMM FM27","OBJECT_ID":"1998-053G","EPOCH":"2026-03-03T14:15:40.247712","MEAN_MOTION":14.3891275,"ECCENTRICITY":0.0001716,"INCLINATION":45.0047,"RA_OF_ASC_NODE":116.8006,"ARG_OF_PERICENTER":240.6685,"MEAN_ANOMALY":119.3993,"EPHEMERIS_TYPE":0,"CLASSIFICATION_TYPE":"U","NORAD_CAT_ID":25481,"ELEMENT_SET_NO":999,"REV_AT_EPOCH":43502,"BSTAR":0.00050218,"MEAN_MOTION_DOT":1.419e-5,"MEAN_MOTION_DDOT":0},{"OBJECT_NAME":"ORBCOMM FM28","OBJECT_ID":"1998-053H","EPOCH":"2026-03-03T07:51:48.304224","MEAN_MOTION":14.39008673,"ECCENTRICITY":0.00035546,"INCLINATION":45.0058,"RA_OF_ASC_NODE":55.2731,"ARG_OF_PERICENTER":190.9293,"MEAN_ANOMALY":169.1479,"EPHEMERIS_TYPE":0,"CLASSIFICATION_TYPE":"U","NORAD_CAT_ID":25482,"ELEMENT_SET_NO":999,"REV_AT_EPOCH":43567,"BSTAR":0.00043997973,"MEAN_MOTION_DOT":1.228e-5,"MEAN_MOTION_DDOT":0},{"OBJECT_NAME":"ORBCOMM FM30","OBJECT_ID":"1999-065A","EPOCH":"2026-03-03T16:41:30.547680","MEAN_MOTION":14.37967316,"ECCENTRICITY":0.0005733,"INCLINATION":45.0316,"RA_OF_ASC_NODE":300.7588,"ARG_OF_PERICENTER":234.4557,"MEAN_ANOMALY":125.5758,"EPHEMERIS_TYPE":0,"CLASSIFICATION_TYPE":"U","NORAD_CAT_ID":25980,"ELEMENT_SET_NO":999,"REV_AT_EPOCH":37179,"BSTAR":0.00039331,"MEAN_MOTION_DOT":1.058e-5,"MEAN_MOTION_DDOT":0},{"OBJECT_NAME":"ORBCOMM FM31","OBJECT_ID":"1999-065B","EPOCH":"2026-03-03T16:21:06.350400","MEAN_MOTION":14.37890327,"ECCENTRICITY":0.0003515,"INCLINATION":45.0228,"RA_OF_ASC_NODE":294.268,"ARG_OF_PERICENTER":265.82,"MEAN_ANOMALY":94.2247,"EPHEMERIS_TYPE":0,"CLASSIFICATION_TYPE":"U","NORAD_CAT_ID":25981,"ELEMENT_SET_NO":999,"REV_AT_EPOCH":37134,"BSTAR":0.00039575,"MEAN_MOTION_DOT":1.063e-5,"MEAN_MOTION_DDOT":0},{"OBJECT_NAME":"ORBCOMM FM32","OBJECT_ID":"1999-065C","EPOCH":"2026-03-03T01:32:37.061376","MEAN_MOTION":14.36950083,"ECCENTRICITY":0.00057683,"INCLINATION":45.0162,"RA_OF_ASC_NODE":315.4948,"ARG_OF_PERICENTER":257.0431,"MEAN_ANOMALY":102.9773,"EPHEMERIS_TYPE":0,"CLASSIFICATION_TYPE":"U","NORAD_CAT_ID":25982,"ELEMENT_SET_NO":999,"REV_AT_EPOCH":37182,"BSTAR":0.0003992496,"MEAN_MOTION_DOT":1.051e-5,"MEAN_MOTION_DDOT":0},{"OBJECT_NAME":"ORBCOMM FM33","OBJECT_ID":"1999-065D","EPOCH":"2026-03-03T16:59:23.532000","MEAN_MOTION":14.4077071,"ECCENTRICITY":0.0008264,"INCLINATION":45.0274,"RA_OF_ASC_NODE":204.4016,"ARG_OF_PERICENTER":280.7785,"MEAN_ANOMALY":79.2135,"EPHEMERIS_TYPE":0,"CLASSIFICATION_TYPE":"U","NORAD_CAT_ID":25983,"ELEMENT_SET_NO":999,"REV_AT_EPOCH":37348,"BSTAR":0.00046492,"MEAN_MOTION_DOT":1.359e-5,"MEAN_MOTION_DDOT":0},{"OBJECT_NAME":"ORBCOMM FM36","OBJECT_ID":"1999-065E","EPOCH":"2026-03-03T15:47:43.636416","MEAN_MOTION":14.38964421,"ECCENTRICITY":0.0002254,"INCLINATION":45.0393,"RA_OF_ASC_NODE":300.4817,"ARG_OF_PERICENTER":154.7007,"MEAN_ANOMALY":205.3953,"EPHEMERIS_TYPE":0,"CLASSIFICATION_TYPE":"U","NORAD_CAT_ID":25984,"ELEMENT_SET_NO":999,"REV_AT_EPOCH":37178,"BSTAR":0.00051698,"MEAN_MOTION_DOT":1.467e-5,"MEAN_MOTION_DDOT":0}]
